OSCAR 7 (AO-7)          
1 07530U 74089B   26192.50489983 -.00000028  00000+0  11198-3 0  9992
2 07530 101.9903 206.0049 0012662  85.1712  82.7676 12.53698483363560
PHASE 3B (AO-10)        
1 14129U 83058B   26190.70523784  .00000106  00000+0  00000+0 0  9990
2 14129  25.9319 215.8523 6003352 121.8543 310.3469  2.05870648295953
UOSAT 2 (UO-11)         
1 14781U 84021B   26192.38417727  .00000876  00000+0  94582-4 0  9997
2 14781  97.8073 157.6913 0009188 101.9428 258.2821 14.90843294260730
LUSAT (LO-19)           
1 20442U 90005G   26192.53118987  .00000048  00000+0  33979-4 0  9994
2 20442  98.8847 215.0069 0012411 131.4145 228.8107 14.34130076905886
EYESAT A (AO-27)        
1 22825U 93061C   26192.40323742  .00000031  00000+0  28763-4 0  9996
2 22825  98.6870 259.8067 0008966  36.3538 323.8252 14.30948446710469
ITAMSAT (IO-26)         
1 22826U 93061D   26192.44532410  .00000028  00000+0  27504-4 0  9993
2 22826  98.6818 259.7686 0009186  20.0633 340.0909 14.31376020710788
RADIO ROSTO (RS15)      
1 23439U 94085A   26192.41679152 -.00000033  00000+0  28374-3 0  9995
2 23439  64.8158 264.0314 0156777 359.4038   0.6677 11.27583525298633
JAS-2 (FO-29)           
1 24278U 96046B   26192.48722333  .00000019  00000+0  53744-4 0  9996
2 24278  98.5222  38.0284 0350514  33.5467 328.7345 13.53275322476455
TECHSAT 1B (GO-32)      
1 25397U 98043D   26192.50891442  .00000018  00000+0  27797-4 0  9997
2 25397  99.0082 185.8824 0002086 120.4756 239.6628 14.24432894454799
ISS (ZARYA)             
1 25544U 98067A   26192.31485778  .00005525  00000+0  10843-3 0  9998
2 25544  51.6302 180.6822 0006688 282.4935  77.5305 15.48978902575497
PCSAT (NO-44)           
1 26931U 01043C   26192.18606088  .00000055  00000+0  51329-4 0  9999
2 26931  67.0491 182.1989 0005966 266.2748  93.7672 14.31964030293884
SAUDISAT 1C (SO-50)     
1 27607U 02058C   26192.22824339  .00000425  00000+0  68086-4 0  9992
2 27607  64.5517  54.6005 0074646 258.0129 101.2603 14.83094010268027
CUTE-1 (CO-55)          
1 27844U 03031E   26192.48336144  .00000156  00000+0  86496-4 0  9993
2 27844  98.6741 200.7369 0010751 112.2064 248.0256 14.24350058195137
CUBESAT XI-IV (CO-57)   
1 27848U 03031J   26191.99204951  .00000130  00000+0  76313-4 0  9991
2 27848  98.6772 199.9452 0010410 130.5633 229.6453 14.23633076194769
MOZHAETS 4 (RS22)       
1 27939U 03042A   26192.52553786  .00000327  00000+0  58604-4 0  9998
2 27939  98.3479  17.5734 0010942 184.9667 251.0779 14.73509930219134
CUBESAT XI-V            
1 28895U 05043F   26192.38715502  .00000804  00000+0  13420-3 0  9999
2 28895  98.3011 348.5214 0015131 126.3821 233.8784 14.72696464105311
CUTE-1.7+APD II (CO-65) 
1 32785U 08021C   26192.50930786  .00003123  00000+0  19801-3 0  9994
2 32785  97.8286 174.4391 0007328 314.4925  45.5703 15.09678405988862
SEEDS II (CO-66)        
1 32791U 08021J   26192.47991517  .00011050  00000+0  34281-3 0  9993
2 32791  97.7523 191.5526 0002674 165.3610 194.7710 15.33583127991014
YUBILEINY (RS30)        
1 32953U 08025A   26192.48331778  .00000039  00000+0  21006-3 0  9991
2 32953  82.5054 340.3257 0018560 257.6252 102.2750 12.43180674822714
KKS-1 (KISEKI)          
1 33499U 09002H   26192.47647765  .00000675  00000+0  89496-4 0  9992
2 33499  98.1178 115.3036 0007116 201.6793 158.4120 14.83183786939793
SWISSCUBE               
1 35932U 09051B   26192.18281227  .00000531  00000+0  11450-3 0  9990
2 35932  98.4014 100.4874 0007656 129.8333 230.3542 14.62526269892660
BEESAT-1                
1 35933U 09051C   26192.20478775  .00000437  00000+0  97507-4 0  9993
2 35933  98.3941 100.0947 0005911 140.2385 219.9249 14.61758109892691
ITUPSAT1                
1 35935U 09051E   26191.18906354  .00000448  00000+0  10253-3 0  9994
2 35935  98.4025  98.2308 0007739 157.5053 202.6487 14.60474362892091
XIWANG-1 (HOPE-1)       
1 36122U 09072B   26192.48760074 -.00000390  00000+0 -90435-3 0  9995
2 36122 100.4029 145.9325 0007421 173.0388 187.0829 13.16438201796203
O/OREOS (USA 219)       
1 37224U 10062C   26190.96510575  .00001388  00000+0  13649-3 0  9998
2 37224  71.9708  28.7386 0013679  15.3805 344.7778 14.93839355120041
JUGNU                   
1 37839U 11058B   26192.23374851  .00000361  00000+0  48953-4 0  9990
2 37839  19.9591 162.3323 0018443 342.6467 134.7204 14.13782829762436
SRMSAT                  
1 37841U 11058D   26192.32393388  .00000351  00000+0  46525-4 0  9991
2 37841  19.9716 273.3792 0011857 108.9537 302.7584 14.11580564761239
STRAND-1                
1 39090U 13009E   26192.49314169  .00000156  00000+0  66857-4 0  9998
2 39090  98.3931  12.1305 0009210 151.3099 208.8597 14.37177517700557
ZACUBE-1 (TSHEPISOSAT)  
1 39417U 13066B   26192.20230991  .00001491  00000+0  11848-3 0  9995
2 39417  97.8013 154.6584 0043797 168.0001 192.2277 15.01317932684339
GOMX-1                  
1 39430U 13066Q   26192.49442670  .00000998  00000+0  15600-3 0  9991
2 39430  97.6477  31.4235 0128650   0.1107   0.0106 14.69537490673483
