OBJECT_NAME,OBJECT_ID,EPOCH,MEAN_MOTION,ECCENTRICITY,INCLINATION,RA_OF_ASC_NODE,ARG_OF_PERICENTER,MEAN_ANOMALY,EPHEMERIS_TYPE,CLASSIFICATION_TYPE,NORAD_CAT_ID,ELEMENT_SET_NO,REV_AT_EPOCH,BSTAR,MEAN_MOTION_DOT,MEAN_MOTION_DDOT
OSCAR 7 (AO-7),1974-089B,2026-07-11T12:07:03.345312,12.53698483,.0012662,101.9903,206.0049,85.1712,82.7676,0,U,7530,999,36356,.11198E-3,-.28E-6,0
PHASE 3B (AO-10),1983-058B,2026-07-09T16:55:32.549376,2.05870648,.60033527,25.9319,215.8523,121.8543,310.3469,0,U,14129,999,29595,0,.106E-5,0
UOSAT 2 (UO-11),1984-021B,2026-07-11T09:13:12.916128,14.90843294,.0009188,97.8073,157.6913,101.9428,258.2821,0,U,14781,999,26073,.94582E-4,.876E-5,0
LUSAT (LO-19),1990-005G,2026-07-11T12:44:54.804768,14.34130076,.0012411,98.8847,215.0069,131.4145,228.8107,0,U,20442,999,90588,.33979E-4,.48E-6,0
EYESAT A (AO-27),1993-061C,2026-07-11T09:40:39.713088,14.30948446,.0008966,98.6870,259.8067,36.3538,323.8252,0,U,22825,999,71046,.28763E-4,.31E-6,0
ITAMSAT (IO-26),1993-061D,2026-07-11T10:41:16.002240,14.31376020,.0009186,98.6818,259.7686,20.0633,340.0909,0,U,22826,999,71078,.27504E-4,.28E-6,0
RADIO ROSTO (RS15),1994-085A,2026-07-11T10:00:10.787328,11.27583525,.0156777,64.8158,264.0314,359.4038,0.6677,0,U,23439,999,29863,.28374E-3,-.33E-6,0
JAS-2 (FO-29),1996-046B,2026-07-11T11:41:36.095712,13.53275322,.0350514,98.5222,38.0284,33.5467,328.7345,0,U,24278,999,47645,.53744E-4,.19E-6,0
TECHSAT 1B (GO-32),1998-043D,2026-07-11T12:12:50.205888,14.24432894,.0002086,99.0082,185.8824,120.4756,239.6628,0,U,25397,999,45479,.27797E-4,.18E-6,0
ISS (ZARYA),1998-067A,2026-07-11T07:33:23.712192,15.48978902,.0006688,51.6302,180.6822,282.4935,77.5305,0,U,25544,999,57549,.10843E-3,.5525E-4,0
PCSAT (NO-44),2001-043C,2026-07-11T04:27:55.660032,14.31964030,.0005966,67.0491,182.1989,266.2748,93.7672,0,U,26931,999,29388,.51329E-4,.55E-6,0
SAUDISAT 1C (SO-50),2002-058C,2026-07-11T05:28:40.228896,14.83094010,.0074646,64.5517,54.6005,258.0129,101.2603,0,U,27607,999,26802,.68086E-4,.425E-5,0
CUTE-1 (CO-55),2003-031E,2026-07-11T11:36:02.428416,14.24350058,.0010751,98.6741,200.7369,112.2064,248.0256,0,U,27844,999,19513,.86496E-4,.156E-5,0
CUBESAT XI-IV (CO-57),2003-031J,2026-07-10T23:48:33.077664,14.23633076,.001041,98.6772,199.9452,130.5633,229.6453,0,U,27848,999,19476,.76313E-4,.13E-5,0
MOZHAETS 4 (RS22),2003-042A,2026-07-11T12:36:46.471104,14.73509930,.0010942,98.3479,17.5734,184.9667,251.0779,0,U,27939,999,21913,.58604E-4,.327E-5,0
CUBESAT XI-V,2005-043F,2026-07-11T09:17:30.193728,14.72696464,.0015131,98.3011,348.5214,126.3821,233.8784,0,U,28895,999,10531,.1342E-3,.804E-5,0
CUTE-1.7+APD II (CO-65),2008-021C,2026-07-11T12:13:24.199104,15.09678405,.0007328,97.8286,174.4391,314.4925,45.5703,0,U,32785,999,98886,.19801E-3,.3123E-4,0
SEEDS II (CO-66),2008-021J,2026-07-11T11:31:04.670688,15.33583127,.0002674,97.7523,191.5526,165.3610,194.7710,0,U,32791,999,99101,.34281E-3,.1105E-3,0
YUBILEINY (RS30),2008-025A,2026-07-11T11:35:58.656192,12.43180674,.001856,82.5054,340.3257,257.6252,102.2750,0,U,32953,999,82271,.21006E-3,.39E-6,0
KKS-1 (KISEKI),2009-002H,2026-07-11T11:26:07.668960,14.83183786,.0007116,98.1178,115.3036,201.6793,158.4120,0,U,33499,999,93979,.89496E-4,.675E-5,0
SWISSCUBE,2009-051B,2026-07-11T04:23:14.980128,14.62526269,.0007656,98.4014,100.4874,129.8333,230.3542,0,U,35932,999,89266,.1145E-3,.531E-5,0
BEESAT-1,2009-051C,2026-07-11T04:54:53.661600,14.61758109,.0005911,98.3941,100.0947,140.2385,219.9249,0,U,35933,999,89269,.97507E-4,.437E-5,0
ITUPSAT1,2009-051E,2026-07-10T04:32:15.089856,14.60474362,.00077396,98.4025,98.2308,157.5053,202.6487,0,U,35935,999,89209,.10252703E-3,.448E-5,0
XIWANG-1 (HOPE-1),2009-072B,2026-07-11T11:42:08.703936,13.16438201,.0007421,100.4029,145.9325,173.0388,187.0829,0,U,36122,999,79620,-.90435E-3,-.39E-5,0
O/OREOS (USA 219),2010-062C,2026-07-09T23:09:45.136800,14.93839355,.00136796,71.9708,28.7386,15.3805,344.7778,0,U,37224,999,12004,.1364878E-3,.1388E-4,0
JUGNU,2011-058B,2026-07-11T05:36:35.871264,14.13782829,.0018443,19.9591,162.3323,342.6467,134.7204,0,U,37839,999,76243,.48953E-4,.361E-5,0
SRMSAT,2011-058D,2026-07-11T07:46:27.887232,14.11580564,.0011857,19.9716,273.3792,108.9537,302.7584,0,U,37841,999,76123,.46525E-4,.351E-5,0
STRAND-1,2013-009E,2026-07-11T11:50:07.442016,14.37177517,.000921,98.3931,12.1305,151.3099,208.8597,0,U,39090,999,70055,.66857E-4,.156E-5,0
ZACUBE-1 (TSHEPISOSAT),2013-066B,2026-07-11T04:51:19.576224,15.01317932,.0043797,97.8013,154.6584,168.0001,192.2277,0,U,39417,999,68433,.11848E-3,.1491E-4,0
GOMX-1,2013-066Q,2026-07-11T11:51:58.466880,14.69537490,.012865,97.6477,31.4235,0.1107,0.0106,0,U,39430,999,67348,.156E-3,.998E-5,0
